STARLINK-30099          
1 56304U 23056U   23134.91667824 -.00765592  00000+0 -14757-1 0  9990
2 56304  43.0033  52.5855 0002491 268.7469 268.4612 15.49421690  1305
STARLINK-30094          
1 56305U 23056V   23135.33334491 -.00780086  00000+0 -19981-1 0  9998
2 56305  43.0030  50.2319 0001642 270.8016  39.4080 15.41239523  4506
STARLINK-30112          
1 56306U 23056W   23135.33334491 -.00782293  00000+0 -20168-1 0  9990
2 56306  43.0030  50.2439 0001609 268.4366  36.9266 15.41053545  4500
POEM-2                  
1 56308U 23057A   23135.26866745  .00002788  00000+0  22285-3 0  9993
2 56308   9.8856 144.8072 0022993 169.1980 190.8812 14.88325924  3418
LUMELITE-4              
1 56309U 23057B   23135.56479718  .00007572  00000+0  60799-3 0  9995
2 56309   9.9947 141.0926 0010341 321.4681  38.4838 14.95225779  3479
TELEOS-2                
1 56310U 23057C   23127.76702314  .00006663  00000+0  53974-3 0  9998
2 56310   9.9830 197.8965 0004294 194.2422 165.6088 14.94454923  2308
ARKSAT 1                
1 56311U 98067VC  23135.53816103  .00048754  00000+0  75931-3 0  9992
2 56311  51.6374 130.0336 0007539 351.8644   8.2223 15.53361070  3286
AURORASAT               
1 56312U 98067VD  23135.21643483  .00057886  00000+0  89839-3 0  9995
2 56312  51.6371 131.6347 0007500 350.0584  10.0256 15.53383941  3261
EX-ALTA-2               
1 56313U 98067VE  23135.53852512  .00048917  00000+0  76215-3 0  9995
2 56313  51.6371 130.0355 0007397 350.8826   9.2029 15.53349787  3308
LIGHTCUBE               
1 56314U 98067VF  23134.70330371  .00058360  00000+0  90845-3 0  9996
2 56314  51.6369 134.2080 0007160 332.4775  27.5835 15.53301058  3200
NEUDOSE                 
1 56315U 98067VG  23135.15823947  .00041055  00000+0  65881-3 0  9998
2 56315  51.6371 131.9949 0007622 331.7961  28.2616 15.52608554  3221
YUKONSAT                
1 56316U 98067VH  23134.70632352  .00045997  00000+0  73109-3 0  9998
2 56316  51.6373 134.2279 0007399 330.7168  29.3407 15.52824897  3179
STARLINK-6038           
1 56317U 23058A   23135.58334491 -.00901582  00000+0 -16176-1 0  9999
2 56317  97.6626 135.7244 0001692 101.0549 162.1834 15.52572531  3143
STARLINK-5954           
1 56318U 23058B   23135.58334491 -.00907548  00000+0 -16283-1 0  9997
2 56318  97.6617 135.7248 0001738 102.3632 161.8980 15.52590102  3148
STARLINK-6039           
1 56319U 23058C   23135.58334491 -.00901452  00000+0 -16155-1 0  9994
2 56319  97.6626 135.7254 0001681  99.7052 165.5711 15.52604196  3140
STARLINK-5988           
1 56320U 23058D   23135.58334491 -.00901933  00000+0 -16169-1 0  9995
2 56320  97.6622 135.7251 0001650  98.8703 165.8994 15.52596687  3145
STARLINK-5876           
1 56321U 23058E   23135.58334491 -.00901727  00000+0 -16141-1 0  9997
2 56321  97.6625 135.7263 0001696 105.1157 162.1865 15.52637313  3146
STARLINK-6033           
1 56322U 23058F   23135.58334491 -.00901909  00000+0 -16178-1 0  9990
2 56322  97.6621 135.7246 0001678 102.8258 160.9290 15.52580245  3149
STARLINK-6035           
1 56323U 23058G   23135.58334491 -.00901941  00000+0 -16150-1 0  9997
2 56323  97.6627 135.7261 0001666 100.3499 166.4457 15.52629349  3145
STARLINK-6034           
1 56324U 23058H   23135.58334491 -.00901601  00000+0 -16153-1 0  9994
2 56324  97.6622 135.7255 0001697 103.2795 162.5035 15.52612515  3145
STARLINK-5981           
1 56325U 23058J   23135.58334491 -.00906824  00000+0 -16226-1 0  9998
2 56325  97.6628 135.7270 0001701 103.3938 165.4278 15.52663183  3143
STARLINK-5980           
1 56326U 23058K   23135.58334491 -.00901535  00000+0 -16147-1 0  9995
2 56326  97.6621 135.7258 0001690 101.4331 164.8568 15.52620620  3140
STARLINK-5997           
1 56327U 23058L   23135.58334491 -.00901595  00000+0 -16110-1 0  9992
2 56327  97.6627 135.7277 0001691 103.9907 166.3489 15.52686100  3149
STARLINK-5992           
1 56328U 23058M   23135.58334491 -.00901381  00000+0 -16125-1 0  9992
2 56328  97.6628 135.7267 0001687 103.3358 164.9812 15.52653160  3143
STARLINK-5984           
1 56329U 23058N   23135.58334491 -.00906955  00000+0 -16219-1 0  9999
2 56329  97.6626 135.7275 0001698 103.4779 166.3569 15.52679509  3141
STARLINK-5967           
1 56330U 23058P   23135.58334491 -.00901704  00000+0 -16136-1 0  9996
2 56330  97.6625 135.7265 0001702 103.4275 164.3840 15.52645063  3146
STARLINK-5991           
1 56331U 23058Q   23135.58334491 -.00901862  00000+0 -16101-1 0  9994
2 56331  97.6629 135.7284 0001634  97.2015 174.6556 15.52710990  3148
STARLINK-5093           
1 56332U 23058R   23135.58334491 -.00902070  00000+0 -16129-1 0  9997
2 56332  97.6630 135.7272 0001694 101.4098 167.9193 15.52669450  3149
STARLINK-5553           
1 56333U 23058S   23135.58334491 -.00902688  00000+0 -16112-1 0  9995
2 56333  97.6634 135.7286 0001671 105.5448 166.8196 15.52719576  3144
STARLINK-5548           
1 56334U 23058T   23135.58334491 -.00902199  00000+0 -16117-1 0  9998
2 56334  97.6623 135.7279 0001668 100.8720 169.9753 15.52694605  3140
STARLINK-5559           
1 56335U 23058U   23135.58334491 -.00909815  00000+0 -16234-1 0  9991
2 56335  97.6631 135.7293 0001678 100.9816 172.8958 15.52749760  3147
STARLINK-5562           
1 56336U 23058V   23135.58334491 -.00907339  00000+0 -16212-1 0  9997
2 56336  97.6628 135.7281 0001689 102.9429 168.4091 15.52704379  3141
STARLINK-5561           
1 56337U 23058W   23135.58334491 -.00906452  00000+0 -16164-1 0  9999
2 56337  97.6635 135.7296 0001688 100.4566 173.9264 15.52756676  3140
STARLINK-5554           
1 56338U 23058X   23135.00001157 -.00871698  00000+0 -14932-1 0  9991
2 56338  97.6626 135.1073 0001630  91.8408 161.4230 15.53760702  3054
STARLINK-5552           
1 56339U 23058Y   23135.58334491 -.00908840  00000+0 -16201-1 0  9996
2 56339  97.6631 135.7300 0001671  99.9459 175.4466 15.52773480  3142
STARLINK-5540           
1 56340U 23058Z   23135.58334491 -.00906787  00000+0 -16180-1 0  9992
2 56340  97.6629 135.7291 0001709 101.7281 171.6463 15.52740369  3142
STARLINK-5543           
1 56341U 23058AA  23135.58334491 -.00908760  00000+0 -16190-1 0  9997
2 56341  97.6638 135.7305 0001655 101.0472 175.3557 15.52789729  3142
STARLINK-5955           
1 56342U 23058AB  23135.58334491 -.00908000  00000+0 -16189-1 0  9993
2 56342  97.6628 135.7297 0001705 102.1662 172.7232 15.52765626  3142
STARLINK-5976           
1 56343U 23058AC  23135.58334491 -.00907724  00000+0 -16160-1 0  9995
2 56343  97.6629 135.7310 0001687 100.3466 177.0661 15.52806082  3147
STARLINK-5974           
1 56344U 23058AD  23135.58334491 -.00907450  00000+0 -16169-1 0  9991
2 56344  97.6627 135.7302 0001682  96.6477 179.2501 15.52781600  3146
STARLINK-5979           
1 56345U 23058AE  23135.58334491 -.00910265  00000+0 -16200-1 0  9996
2 56345  97.6639 135.7315 0001679 101.0387 177.3826 15.52822695  3140
STARLINK-5837           
1 56346U 23058AF  23135.58334491 -.00909939  00000+0 -16208-1 0  9991
2 56346  97.6637 135.7307 0001664  98.9184 177.9909 15.52798299  3143
STARLINK-5829           
1 56347U 23058AG  23135.58334491 -.00907940  00000+0 -16150-1 0  9998
2 56347  97.6632 135.7317 0001699  98.0879 180.8384 15.52830300  3140
STARLINK-5888           
1 56348U 23058AH  23135.58334491 -.00907650  00000+0 -16154-1 0  9991
2 56348  97.6627 135.7312 0001677  98.1003 179.8184 15.52813954  3148
STARLINK-5887           
1 56349U 23058AJ  23135.58334491 -.00907675  00000+0 -16126-1 0  9998
2 56349  97.6636 135.7326 0001668  99.2832 181.6579 15.52862795  3142
STARLINK-5886           
1 56350U 23058AK  23135.58334491 -.00907747  00000+0 -16137-1 0  9992
2 56350  97.6631 135.7321 0001689  98.0421 181.8943 15.52846201  3149
STARLINK-5891           
1 56351U 23058AL  23135.58334491 -.00908284  00000+0 -16133-1 0  9996
2 56351  97.6629 135.7328 0001703  97.5532 183.8932 15.52870867  3143
STARLINK-5885           
1 56352U 23058AM  23135.58334491 -.00907553  00000+0 -16138-1 0  9990
2 56352  97.6634 135.7319 0001686  96.5674 182.8643 15.52838009  3146
STARLINK-5874           
1 56353U 23058AN  23135.58334491 -.00908194  00000+0 -16089-1 0  9998
2 56353  97.6636 135.7348 0001676  97.7684 188.2081 15.52943500  3143
STARLINK-5877           
1 56354U 23058AP  23135.58334491 -.00907688  00000+0 -16131-1 0  9994
2 56354  97.6636 135.7323 0001677  98.2305 182.2077 15.52854586  3148
STARLINK-5533           
1 56355U 23058AQ  23135.58334491 -.00907291  00000+0 -16095-1 0  9994
2 56355  97.6637 135.7338 0001716 101.2976 182.1605 15.52902680  3144
STARLINK-5535           
1 56356U 23058AR  23135.58334491 -.00907473  00000+0 -16108-1 0  9992
2 56356  97.6633 135.7333 0001680  96.9269 185.5253 15.52886791  3141
STARLINK-5538           
1 56357U 23058AS  23135.58334491 -.00907885  00000+0 -16111-1 0  9994
2 56357  97.6639 135.7336 0001670 102.3798 180.5739 15.52895494  3143
STARLINK-5482           
1 56358U 23058AT  23135.58334491 -.00908011  00000+0 -16123-1 0  9990
2 56358  97.6634 135.7330 0001697 101.6426 180.3075 15.52878909  3145
STARLINK-5551           
1 56359U 23058AU  23135.58334491 -.00908048  00000+0 -16100-1 0  9996
2 56359  97.6644 135.7343 0001682 102.2103 182.2529 15.52919687  3148
STARLINK-5549           
1 56360U 23058AV  23135.58334491 -.00908380  00000+0 -16111-1 0  9999
2 56360  97.6637 135.7339 0001679 101.9996 181.9606 15.52911936  3140
STARLINK-5550           
1 56361U 23058AW  23135.58334491 -.00907283  00000+0 -16076-1 0  9991
2 56361  97.6646 135.7347 0001664  97.7843 187.6841 15.52935446  3143
STARLINK-5972           
1 56362U 23058AX  23135.58334491 -.00908034  00000+0 -16095-1 0  9998
2 56362  97.6635 135.7344 0001652  97.8124 187.1525 15.52928037  3141
FALCON 9 DEB            
1 56363U 23058AY  23135.03185766  .00240413  23123-4  78501-3 0  9994
2 56363  97.6705 135.6364 0037248 182.7852 177.3218 15.89424617  3249
